{
  "type": "FeatureCollection",
  "features": [
    {
      "type": "Feature",
      "properties": {
        "norad_id": 58701,
        "name": "TIANMU-1 16",
        "group": "weather",
        "lat": -80.99838347071459,
        "lon": -54.37579745084734,
        "alt_km": 496.6980357304019,
        "timestamp": "2025-12-26T14:28:47.333168+00:00",
        "meta_object_name": "TIANMU-1 16",
        "meta_object_id": "2024-004B",
        "meta_epoch": "2025-12-26T07:01:13.274400",
        "meta_mean_motion": 15.24614504,
        "meta_eccentricity": 0.00044501,
        "meta_inclination": 97.457,
        "meta_ra_of_asc_node": 181.0892,
        "meta_arg_of_pericenter": 234.1604,
        "meta_mean_anomaly": 125.9221,
        "meta_ephemeris_type": 0,
        "meta_classification_type": "U",
        "meta_norad_cat_id": 58701,
        "meta_element_set_no": 999,
        "meta_rev_at_epoch": 10941,
        "meta_bstar": 0.00028916847,
        "meta_mean_motion_dot": 7.063e-05,
        "meta_mean_motion_ddot": 0,
        "tle_line1": "1 58701U 24004B   25360.29251475  .00007063  00000+0  28917-3 0  9997",
        "tle_line2": "2 58701  97.4570 181.0892 0004450 234.1604 125.9221 15.24614504109416"
      },
      "geometry": {
        "type": "Point",
        "coordinates": [
          -54.37579745084734,
          -80.99838347071459
        ]
      }
    },
    {
      "type": "Feature",
      "properties": {
        "norad_id": 58702,
        "name": "TIANMU-1 17",
        "group": "weather",
        "lat": -8.429994375132338,
        "lon": -177.07136312060766,
        "alt_km": 497.0821909262995,
        "timestamp": "2025-12-26T14:28:47.333178+00:00",
        "meta_object_name": "TIANMU-1 17",
        "meta_object_id": "2024-004C",
        "meta_epoch": "2025-12-26T06:38:28.932000",
        "meta_mean_motion": 15.24656988,
        "meta_eccentricity": 0.00036156,
        "meta_inclination": 97.4604,
        "meta_ra_of_asc_node": 181.4906,
        "meta_arg_of_pericenter": 234.9723,
        "meta_mean_anomaly": 125.1175,
        "meta_ephemeris_type": 0,
        "meta_classification_type": "U",
        "meta_norad_cat_id": 58702,
        "meta_element_set_no": 999,
        "meta_rev_at_epoch": 10940,
        "meta_bstar": 0.00029546712,
        "meta_mean_motion_dot": 7.228e-05,
        "meta_mean_motion_ddot": 0,
        "tle_line1": "1 58702U 24004C   25360.27672375  .00007228  00000+0  29547-3 0  9995",
        "tle_line2": "2 58702  97.4604 181.4906 0003615 234.9723 125.1175 15.24656988109408"
      },
      "geometry": {
        "type": "Point",
        "coordinates": [
          -177.07136312060766,
          -8.429994375132338
        ]
      }
    },
    {
      "type": "Feature",
      "properties": {
        "norad_id": 58703,
        "name": "TIANMU-1 18",
        "group": "weather",
        "lat": 79.30142259903812,
        "lon": 138.08481732969173,
        "alt_km": 486.2593453207119,
        "timestamp": "2025-12-26T14:28:47.333188+00:00",
        "meta_object_name": "TIANMU-1 18",
        "meta_object_id": "2024-004D",
        "meta_epoch": "2025-12-26T06:14:39.039648",
        "meta_mean_motion": 15.24639297,
        "meta_eccentricity": 0.00030122,
        "meta_inclination": 97.4621,
        "meta_ra_of_asc_node": 181.6723,
        "meta_arg_of_pericenter": 231.3729,
        "meta_mean_anomaly": 128.7239,
        "meta_ephemeris_type": 0,
        "meta_classification_type": "U",
        "meta_norad_cat_id": 58703,
        "meta_element_set_no": 999,
        "meta_rev_at_epoch": 10940,
        "meta_bstar": 0.0003050266,
        "meta_mean_motion_dot": 7.46e-05,
        "meta_mean_motion_ddot": 0,
        "tle_line1": "1 58703U 24004D   25360.26017407  .00007460  00000+0  30503-3 0  9996",
        "tle_line2": "2 58703  97.4621 181.6723 0003012 231.3729 128.7239 15.24639297109409"
      },
      "geometry": {
        "type": "Point",
        "coordinates": [
          138.08481732969173,
          79.30142259903812
        ]
      }
    },
    {
      "type": "Feature",
      "properties": {
        "norad_id": 58990,
        "name": "INSAT-3DS",
        "group": "weather",
        "lat": -0.04717429102715876,
        "lon": 34.65666318874049,
        "alt_km": 35789.011370167624,
        "timestamp": "2025-12-26T14:28:47.333200+00:00",
        "meta_object_name": "INSAT-3DS",
        "meta_object_id": "2024-033A",
        "meta_epoch": "2025-12-26T03:37:38.694720",
        "meta_mean_motion": 1.00270995,
        "meta_eccentricity": 0.00013204,
        "meta_inclination": 0.0623,
        "meta_ra_of_asc_node": 99.1784,
        "meta_arg_of_pericenter": 176.7912,
        "meta_mean_anomaly": 315.4504,
        "meta_ephemeris_type": 0,
        "meta_classification_type": "U",
        "meta_norad_cat_id": 58990,
        "meta_element_set_no": 999,
        "meta_rev_at_epoch": 4533,
        "meta_bstar": 0,
        "meta_mean_motion_dot": -1.34e-06,
        "meta_mean_motion_ddot": 0,
        "tle_line1": "1 58990U 24033A   25360.15114230 -.00000134  00000+0  00000+0 0  9993",
        "tle_line2": "2 58990   0.0623  99.1784 0001320 176.7912 315.4504  1.00270995 45331"
      },
      "geometry": {
        "type": "Point",
        "coordinates": [
          34.65666318874049,
          -0.04717429102715876
        ]
      }
    },
    {
      "type": "Feature",
      "properties": {
        "norad_id": 59051,
        "name": "METEOR-M2 4",
        "group": "weather",
        "lat": -27.199739229179556,
        "lon": 132.79401879482418,
        "alt_km": 824.4339409253034,
        "timestamp": "2025-12-26T14:28:47.333212+00:00",
        "meta_object_name": "METEOR-M2 4",
        "meta_object_id": "2024-039A",
        "meta_epoch": "2025-12-26T06:45:14.731200",
        "meta_mean_motion": 14.22403344,
        "meta_eccentricity": 0.00063448,
        "meta_inclination": 98.6786,
        "meta_ra_of_asc_node": 316.9792,
        "meta_arg_of_pericenter": 317.5384,
        "meta_mean_anomaly": 42.5303,
        "meta_ephemeris_type": 0,
        "meta_classification_type": "U",
        "meta_norad_cat_id": 59051,
        "meta_element_set_no": 999,
        "meta_rev_at_epoch": 9468,
        "meta_bstar": 3.9329197e-05,
        "meta_mean_motion_dot": 4.4e-07,
        "meta_mean_motion_ddot": 0,
        "tle_line1": "1 59051U 24039A   25360.28142050  .00000044  00000+0  39329-4 0  9993",
        "tle_line2": "2 59051  98.6786 316.9792 0006344 317.5384  42.5303 14.22403344 94682"
      },
      "geometry": {
        "type": "Point",
        "coordinates": [
          132.79401879482418,
          -27.199739229179556
        ]
      }
    },
    {
      "type": "Feature",
      "properties": {
        "norad_id": 60133,
        "name": "GOES 19",
        "group": "weather",
        "lat": 0.018657074917959284,
        "lon": -122.6638066667497,
        "alt_km": 35785.642383981045,
        "timestamp": "2025-12-26T14:28:47.333224+00:00",
        "meta_object_name": "GOES 19",
        "meta_object_id": "2024-119A",
        "meta_epoch": "2025-12-26T06:19:59.348640",
        "meta_mean_motion": 1.00270489,
        "meta_eccentricity": 0.00011065,
        "meta_inclination": 0.0402,
        "meta_ra_of_asc_node": 173.7698,
        "meta_arg_of_pericenter": 143.4925,
        "meta_mean_anomaly": 157.5606,
        "meta_ephemeris_type": 0,
        "meta_classification_type": "U",
        "meta_norad_cat_id": 60133,
        "meta_element_set_no": 999,
        "meta_rev_at_epoch": 523,
        "meta_bstar": 0,
        "meta_mean_motion_dot": -2.26e-06,
        "meta_mean_motion_ddot": 0,
        "tle_line1": "1 60133U 24119A   25360.26388135 -.00000226  00000+0  00000+0 0  9991",
        "tle_line2": "2 60133   0.0402 173.7698 0001106 143.4925 157.5606  1.00270489  5239"
      },
      "geometry": {
        "type": "Point",
        "coordinates": [
          -122.6638066667497,
          0.018657074917959284
        ]
      }
    },
    {
      "type": "Feature",
      "properties": {
        "norad_id": 65815,
        "name": "FENGYUN 3H",
        "group": "weather",
        "lat": -37.60682228716482,
        "lon": -53.364210116525896,
        "alt_km": 832.5329556360002,
        "timestamp": "2025-12-26T14:28:47.333234+00:00",
        "meta_object_name": "FENGYUN 3H",
        "meta_object_id": "2025-219A",
        "meta_epoch": "2025-12-26T06:12:10.708128",
        "meta_mean_motion": 14.19908278,
        "meta_eccentricity": 8.69e-05,
        "meta_inclination": 98.6602,
        "meta_ra_of_asc_node": 299.5564,
        "meta_arg_of_pericenter": 109.807,
        "meta_mean_anomaly": 250.3201,
        "meta_ephemeris_type": 0,
        "meta_classification_type": "U",
        "meta_norad_cat_id": 65815,
        "meta_element_set_no": 999,
        "meta_rev_at_epoch": 1284,
        "meta_bstar": 6.9433267e-05,
        "meta_mean_motion_dot": 1.04e-06,
        "meta_mean_motion_ddot": 0,
        "tle_line1": "1 65815U 25219A   25360.25845727  .00000104  00000+0  69433-4 0  9993",
        "tle_line2": "2 65815  98.6602 299.5564 0000869 109.8070 250.3201 14.19908278 12843"
      },
      "geometry": {
        "type": "Point",
        "coordinates": [
          -53.364210116525896,
          -37.60682228716482
        ]
      }
    }
  ]
}